CCSDS_OMM_VERS = 2.0
CREATION_DATE  = 
ORIGINATOR     = 

OBJECT_NAME    = STARLINK-36403
OBJECT_ID      = 2026-016C
CENTER_NAME    = EARTH
REF_FRAME      = TEME
TIME_SYSTEM    = UTC
MEAN_ELEMENT_THEORY = SGP/SGP4

EPOCH          = 2026-02-12T14:57:59.218848
MEAN_MOTION    = 15.80843274
ECCENTRICITY   = .00008004
INCLINATION    = 97.2829
RA_OF_ASC_NODE = 102.8167
ARG_OF_PERICENTER = 141.3469
MEAN_ANOMALY   = 218.7857

EPHEMERIS_TYPE = 0
CLASSIFICATION_TYPE = U
NORAD_CAT_ID   = 67563
ELEMENT_SET_NO = 999
REV_AT_EPOCH   = 285
BSTAR          = .63073148E-3
MEAN_MOTION_DOT = .122534E-2
MEAN_MOTION_DDOT = 0

CCSDS_OMM_VERS = 2.0
CREATION_DATE  = 
ORIGINATOR     = 

OBJECT_NAME    = STARLINK-36593
OBJECT_ID      = 2026-016D
CENTER_NAME    = EARTH
REF_FRAME      = TEME
TIME_SYSTEM    = UTC
MEAN_ELEMENT_THEORY = SGP/SGP4

EPOCH          = 2026-02-12T14:56:13.428960
MEAN_MOTION    = 15.80859393
ECCENTRICITY   = .00004318
INCLINATION    = 97.2829
RA_OF_ASC_NODE = 102.8180
ARG_OF_PERICENTER = 138.9612
MEAN_ANOMALY   = 221.1689

EPHEMERIS_TYPE = 0
CLASSIFICATION_TYPE = U
NORAD_CAT_ID   = 67564
ELEMENT_SET_NO = 999
REV_AT_EPOCH   = 285
BSTAR          = .73302473E-3
MEAN_MOTION_DOT = .142871E-2
MEAN_MOTION_DDOT = 0

CCSDS_OMM_VERS = 2.0
CREATION_DATE  = 
ORIGINATOR     = 

OBJECT_NAME    = STARLINK-35725
OBJECT_ID      = 2026-016E
CENTER_NAME    = EARTH
REF_FRAME      = TEME
TIME_SYSTEM    = UTC
MEAN_ELEMENT_THEORY = SGP/SGP4

EPOCH          = 2026-02-12T14:55:25.411296
MEAN_MOTION    = 15.79031776
ECCENTRICITY   = .00012232
INCLINATION    = 97.2831
RA_OF_ASC_NODE = 102.8182
ARG_OF_PERICENTER = 116.7330
MEAN_ANOMALY   = 243.4062

EPHEMERIS_TYPE = 0
CLASSIFICATION_TYPE = U
NORAD_CAT_ID   = 67565
ELEMENT_SET_NO = 999
REV_AT_EPOCH   = 285
BSTAR          = -.49863083E-2
MEAN_MOTION_DOT = -.803701E-2
MEAN_MOTION_DDOT = 0

CCSDS_OMM_VERS = 2.0
CREATION_DATE  = 
ORIGINATOR     = 

OBJECT_NAME    = STARLINK-36394
OBJECT_ID      = 2026-016F
CENTER_NAME    = EARTH
REF_FRAME      = TEME
TIME_SYSTEM    = UTC
MEAN_ELEMENT_THEORY = SGP/SGP4

EPOCH          = 2026-02-12T14:00:01.999872
MEAN_MOTION    = 15.75146829
ECCENTRICITY   = .00015021
INCLINATION    = 97.2841
RA_OF_ASC_NODE = 102.7722
ARG_OF_PERICENTER = 85.2975
MEAN_ANOMALY   = 51.9099

EPHEMERIS_TYPE = 0
CLASSIFICATION_TYPE = U
NORAD_CAT_ID   = 67566
ELEMENT_SET_NO = 999
REV_AT_EPOCH   = 411
BSTAR          = .29963695E-3
MEAN_MOTION_DOT = .44714E-3
MEAN_MOTION_DDOT = 0

CCSDS_OMM_VERS = 2.0
CREATION_DATE  = 
ORIGINATOR     = 

OBJECT_NAME    = STARLINK-36352
OBJECT_ID      = 2026-016G
CENTER_NAME    = EARTH
REF_FRAME      = TEME
TIME_SYSTEM    = UTC
MEAN_ELEMENT_THEORY = SGP/SGP4

EPOCH          = 2026-02-12T14:50:56.842080
MEAN_MOTION    = 15.80892725
ECCENTRICITY   = .00001886
INCLINATION    = 97.2817
RA_OF_ASC_NODE = 102.8184
ARG_OF_PERICENTER = 78.8456
MEAN_ANOMALY   = 281.2834

EPHEMERIS_TYPE = 0
CLASSIFICATION_TYPE = U
NORAD_CAT_ID   = 67567
ELEMENT_SET_NO = 999
REV_AT_EPOCH   = 285
BSTAR          = .12507643E-2
MEAN_MOTION_DOT = .247228E-2
MEAN_MOTION_DDOT = 0

CCSDS_OMM_VERS = 2.0
CREATION_DATE  = 
ORIGINATOR     = 

OBJECT_NAME    = STARLINK-36435
OBJECT_ID      = 2026-016H
CENTER_NAME    = EARTH
REF_FRAME      = TEME
TIME_SYSTEM    = UTC
MEAN_ELEMENT_THEORY = SGP/SGP4

EPOCH          = 2026-02-12T14:47:41.887392
MEAN_MOTION    = 15.80907988
ECCENTRICITY   = .00009937
INCLINATION    = 97.2781
RA_OF_ASC_NODE = 102.8205
ARG_OF_PERICENTER = 185.9943
MEAN_ANOMALY   = 174.1314

EPHEMERIS_TYPE = 0
CLASSIFICATION_TYPE = U
NORAD_CAT_ID   = 67568
ELEMENT_SET_NO = 999
REV_AT_EPOCH   = 285
BSTAR          = .13240328E-2
MEAN_MOTION_DOT = .262349E-2
MEAN_MOTION_DDOT = 0

CCSDS_OMM_VERS = 2.0
CREATION_DATE  = 
ORIGINATOR     = 

OBJECT_NAME    = STARLINK-36575
OBJECT_ID      = 2026-016J
CENTER_NAME    = EARTH
REF_FRAME      = TEME
TIME_SYSTEM    = UTC
MEAN_ELEMENT_THEORY = SGP/SGP4

EPOCH          = 2026-02-12T14:45:58.378464
MEAN_MOTION    = 15.80881070
ECCENTRICITY   = .00015679
INCLINATION    = 97.2836
RA_OF_ASC_NODE = 102.8275
ARG_OF_PERICENTER = 71.3256
MEAN_ANOMALY   = 288.8182

EPHEMERIS_TYPE = 0
CLASSIFICATION_TYPE = U
NORAD_CAT_ID   = 67569
ELEMENT_SET_NO = 999
REV_AT_EPOCH   = 285
BSTAR          = .12793502E-2
MEAN_MOTION_DOT = .252902E-2
MEAN_MOTION_DDOT = 0

CCSDS_OMM_VERS = 2.0
CREATION_DATE  = 
ORIGINATOR     = 

OBJECT_NAME    = STARLINK-36562
OBJECT_ID      = 2026-016K
CENTER_NAME    = EARTH
REF_FRAME      = TEME
TIME_SYSTEM    = UTC
MEAN_ELEMENT_THEORY = SGP/SGP4

EPOCH          = 2026-02-12T14:44:39.131520
MEAN_MOTION    = 15.80885848
ECCENTRICITY   = .00013876
INCLINATION    = 97.2837
RA_OF_ASC_NODE = 102.8281
ARG_OF_PERICENTER = 130.2008
MEAN_ANOMALY   = 229.9382

EPHEMERIS_TYPE = 0
CLASSIFICATION_TYPE = U
NORAD_CAT_ID   = 67570
ELEMENT_SET_NO = 999
REV_AT_EPOCH   = 285
BSTAR          = .1061106E-2
MEAN_MOTION_DOT = .208711E-2
MEAN_MOTION_DDOT = 0

CCSDS_OMM_VERS = 2.0
CREATION_DATE  = 
ORIGINATOR     = 

OBJECT_NAME    = STARLINK-36578
OBJECT_ID      = 2026-016L
CENTER_NAME    = EARTH
REF_FRAME      = TEME
TIME_SYSTEM    = UTC
MEAN_ELEMENT_THEORY = SGP/SGP4

EPOCH          = 2026-02-12T14:00:01.999872
MEAN_MOTION    = 15.75178450
ECCENTRICITY   = .0001377
INCLINATION    = 97.2840
RA_OF_ASC_NODE = 102.7698
ARG_OF_PERICENTER = 106.2043
MEAN_ANOMALY   = 18.9801

EPHEMERIS_TYPE = 0
CLASSIFICATION_TYPE = U
NORAD_CAT_ID   = 67571
ELEMENT_SET_NO = 999
REV_AT_EPOCH   = 399
BSTAR          = .223665E-3
MEAN_MOTION_DOT = .33345E-3
MEAN_MOTION_DDOT = 0

CCSDS_OMM_VERS = 2.0
CREATION_DATE  = 
ORIGINATOR     = 

OBJECT_NAME    = STARLINK-36350
OBJECT_ID      = 2026-016M
CENTER_NAME    = EARTH
REF_FRAME      = TEME
TIME_SYSTEM    = UTC
MEAN_ELEMENT_THEORY = SGP/SGP4

EPOCH          = 2026-02-12T14:00:01.999872
MEAN_MOTION    = 15.75205072
ECCENTRICITY   = .0001245
INCLINATION    = 97.2837
RA_OF_ASC_NODE = 102.7853
ARG_OF_PERICENTER = 87.2205
MEAN_ANOMALY   = 81.9669

EPHEMERIS_TYPE = 0
CLASSIFICATION_TYPE = U
NORAD_CAT_ID   = 67572
ELEMENT_SET_NO = 999
REV_AT_EPOCH   = 390
BSTAR          = -.36204427E-3
MEAN_MOTION_DOT = -.53826E-3
MEAN_MOTION_DDOT = 0

CCSDS_OMM_VERS = 2.0
CREATION_DATE  = 
ORIGINATOR     = 

OBJECT_NAME    = STARLINK-36588
OBJECT_ID      = 2026-016N
CENTER_NAME    = EARTH
REF_FRAME      = TEME
TIME_SYSTEM    = UTC
MEAN_ELEMENT_THEORY = SGP/SGP4

EPOCH          = 2026-02-12T14:00:01.999872
MEAN_MOTION    = 15.75182869
ECCENTRICITY   = .00015182
INCLINATION    = 97.2844
RA_OF_ASC_NODE = 102.7819
ARG_OF_PERICENTER = 100.0876
MEAN_ANOMALY   = 57.1016

EPHEMERIS_TYPE = 0
CLASSIFICATION_TYPE = U
NORAD_CAT_ID   = 67573
ELEMENT_SET_NO = 999
REV_AT_EPOCH   = 406
BSTAR          = -.54756444E-4
MEAN_MOTION_DOT = -.8287E-4
MEAN_MOTION_DDOT = 0

CCSDS_OMM_VERS = 2.0
CREATION_DATE  = 
ORIGINATOR     = 

OBJECT_NAME    = STARLINK-36594
OBJECT_ID      = 2026-016P
CENTER_NAME    = EARTH
REF_FRAME      = TEME
TIME_SYSTEM    = UTC
MEAN_ELEMENT_THEORY = SGP/SGP4

EPOCH          = 2026-02-12T14:37:52.749120
MEAN_MOTION    = 15.80869042
ECCENTRICITY   = .00025379
INCLINATION    = 97.2845
RA_OF_ASC_NODE = 102.8324
ARG_OF_PERICENTER = 63.8721
MEAN_ANOMALY   = 296.2808

EPHEMERIS_TYPE = 0
CLASSIFICATION_TYPE = U
NORAD_CAT_ID   = 67574
ELEMENT_SET_NO = 999
REV_AT_EPOCH   = 285
BSTAR          = .11270947E-2
MEAN_MOTION_DOT = .221882E-2
MEAN_MOTION_DDOT = 0

