STARLINK-36403          
1 67563U 26016C   26043.62360207  .00122534  00000+0  63073-3 0  9991
2 67563  97.2829 102.8167 0000800 141.3469 218.7857 15.80843274  2852
STARLINK-36593          
1 67564U 26016D   26043.62237765  .00142871  00000+0  73302-3 0  9996
2 67564  97.2829 102.8180 0000431 138.9612 221.1689 15.80859393  2850
STARLINK-35725          
1 67565U 26016E   26043.62182189 -.00803701  00000+0 -49863-2 0  9998
2 67565  97.2831 102.8182 0001223 116.7330 243.4062 15.79031776  2854
STARLINK-36394          
1 67566U 26016F   26043.58335648  .00044714  00000+0  29964-3 0  9994
2 67566  97.2841 102.7722 0001502  85.2975  51.9099 15.75146829  4115
STARLINK-36352          
1 67567U 26016G   26043.61871345  .00247228  00000+0  12508-2 0  9998
2 67567  97.2817 102.8184 0000188  78.8456 281.2834 15.80892725  2856
STARLINK-36435          
1 67568U 26016H   26043.61645703  .00262349  00000+0  13240-2 0  9991
2 67568  97.2781 102.8205 0000993 185.9943 174.1314 15.80907988  2857
STARLINK-36575          
1 67569U 26016J   26043.61525901  .00252902  00000+0  12794-2 0  9996
2 67569  97.2836 102.8275 0001567  71.3256 288.8182 15.80881070  2858
STARLINK-36562          
1 67570U 26016K   26043.61434180  .00208711  00000+0  10611-2 0  9991
2 67570  97.2837 102.8281 0001387 130.2008 229.9382 15.80885848  2853
STARLINK-36578          
1 67571U 26016L   26043.58335648  .00033345  00000+0  22367-3 0  9998
2 67571  97.2840 102.7698 0001377 106.2043  18.9801 15.75178450  3996
STARLINK-36350          
1 67572U 26016M   26043.58335648 -.00053826  00000+0 -36204-3 0  9992
2 67572  97.2837 102.7853 0001245  87.2205  81.9669 15.75205072  3902
STARLINK-36588          
1 67573U 26016N   26043.58335648 -.00008287  00000+0 -54756-4 0  9997
2 67573  97.2844 102.7819 0001518 100.0876  57.1016 15.75182869  4061
STARLINK-36594          
1 67574U 26016P   26043.60963830  .00221882  00000+0  11271-2 0  9990
2 67574  97.2845 102.8324 0002537  63.8721 296.2808 15.80869042  2853
